[{"OBJECT_NAME":"SCS-01 D","OBJECT_ID":"2025-100D","EPOCH":"2026-03-09T18:08:45.040704","MEAN_MOTION":15.31902149,"ECCENTRICITY":0.00063457,"INCLINATION":97.373,"RA_OF_ASC_NODE":145.4097,"ARG_OF_PERICENTER":266.2302,"MEAN_ANOMALY":93.8214,"EPHEMERIS_TYPE":0,"CLASSIFICATION_TYPE":"U","NORAD_CAT_ID":63985,"ELEMENT_SET_NO":999,"REV_AT_EPOCH":4562,"BSTAR":0.0010528181,"MEAN_MOTION_DOT":0.00032471,"MEAN_MOTION_DDOT":0},{"OBJECT_NAME":"STARLINK-35027","OBJECT_ID":"2025-195J","EPOCH":"2026-03-09T18:16:23.045376","MEAN_MOTION":15.3020009,"ECCENTRICITY":0.00014252,"INCLINATION":53.1585,"RA_OF_ASC_NODE":257.9192,"ARG_OF_PERICENTER":129.1646,"MEAN_ANOMALY":230.9482,"EPHEMERIS_TYPE":0,"CLASSIFICATION_TYPE":"U","NORAD_CAT_ID":65466,"ELEMENT_SET_NO":999,"REV_AT_EPOCH":3000,"BSTAR":0.00042683475,"MEAN_MOTION_DOT":0.00012303,"MEAN_MOTION_DDOT":0}]
